[{"OBJECT_NAME":"ONEWEB-0598","OBJECT_ID":"2023-004Q","EPOCH":"2026-06-09T01:44:50.475552","MEAN_MOTION":13.11416877,"ECCENTRICITY":0.000139,"INCLINATION":87.8893,"RA_OF_ASC_NODE":22.684,"ARG_OF_PERICENTER":106.7534,"MEAN_ANOMALY":253.3746,"EPHEMERIS_TYPE":0,"CLASSIFICATION_TYPE":"U","NORAD_CAT_ID":55154,"ELEMENT_SET_NO":999,"REV_AT_EPOCH":16483,"BSTAR":0.0015029000000000002,"MEAN_MOTION_DOT":5.45e-06,"MEAN_MOTION_DDOT":0.0},{"OBJECT_NAME":"ONEWEB-0599","OBJECT_ID":"2023-004R","EPOCH":"2026-06-09T03:03:39.767904","MEAN_MOTION":13.17648015,"ECCENTRICITY":0.0001641,"INCLINATION":87.9137,"RA_OF_ASC_NODE":7.468,"ARG_OF_PERICENTER":84.06,"MEAN_ANOMALY":276.0718,"EPHEMERIS_TYPE":0,"CLASSIFICATION_TYPE":"U","NORAD_CAT_ID":55155,"ELEMENT_SET_NO":999,"REV_AT_EPOCH":16642,"BSTAR":8.9249e-05,"MEAN_MOTION_DOT":4.8e-07,"MEAN_MOTION_DDOT":0.0},{"OBJECT_NAME":"ONEWEB-0614","OBJECT_ID":"2023-004S","EPOCH":"2026-06-08T23:47:38.542848","MEAN_MOTION":13.11418432,"ECCENTRICITY":0.0002046,"INCLINATION":87.8893,"RA_OF_ASC_NODE":22.7092,"ARG_OF_PERICENTER":82.6309,"MEAN_ANOMALY":277.5052,"EPHEMERIS_TYPE":0,"CLASSIFICATION_TYPE":"U","NORAD_CAT_ID":55156,"ELEMENT_SET_NO":999,"REV_AT_EPOCH":16476,"BSTAR":0.0017315,"MEAN_MOTION_DOT":6.26e-06,"MEAN_MOTION_DDOT":0.0},{"OBJECT_NAME":"ONEWEB-0616","OBJECT_ID":"2023-004T","EPOCH":"2026-06-09T02:15:04.279392","MEAN_MOTION":13.17648153,"ECCENTRICITY":0.0001202,"INCLINATION":87.9139,"RA_OF_ASC_NODE":7.478,"ARG_OF_PERICENTER":60.1759,"MEAN_ANOMALY":299.9492,"EPHEMERIS_TYPE":0,"CLASSIFICATION_TYPE":"U","NORAD_CAT_ID":55157,"ELEMENT_SET_NO":999,"REV_AT_EPOCH":16663,"BSTAR":9.0633e-05,"MEAN_MOTION_DOT":4.8e-07,"MEAN_MOTION_DDOT":0.0},{"OBJECT_NAME":"ONEWEB-0617","OBJECT_ID":"2023-004U","EPOCH":"2026-06-09T01:20:25.602432","MEAN_MOTION":13.11418882,"ECCENTRICITY":0.0002234,"INCLINATION":87.8898,"RA_OF_ASC_NODE":22.687,"ARG_OF_PERICENTER":87.591,"MEAN_ANOMALY":272.5474,"EPHEMERIS_TYPE":0,"CLASSIFICATION_TYPE":"U","NORAD_CAT_ID":55158,"ELEMENT_SET_NO":999,"REV_AT_EPOCH":16479,"BSTAR":0.00083047,"MEAN_MOTION_DOT":3.07e-06,"MEAN_MOTION_DDOT":0.0},{"OBJECT_NAME":"ONEWEB-0618","OBJECT_ID":"2023-004V","EPOCH":"2026-06-09T07:42:13.897152","MEAN_MOTION":15.13086104,"ECCENTRICITY":0.00106,"INCLINATION":86.9107,"RA_OF_ASC_NODE":180.828,"ARG_OF_PERICENTER":335.1184,"MEAN_ANOMALY":24.9543,"EPHEMERIS_TYPE":0,"CLASSIFICATION_TYPE":"U","NORAD_CAT_ID":55159,"ELEMENT_SET_NO":999,"REV_AT_EPOCH":18107,"BSTAR":0.00020876,"MEAN_MOTION_DOT":3.729e-05,"MEAN_MOTION_DDOT":0.0},{"OBJECT_NAME":"ONEWEB-0619","OBJECT_ID":"2023-004W","EPOCH":"2026-06-09T03:01:14.613312","MEAN_MOTION":13.17648269,"ECCENTRICITY":0.0002092,"INCLINATION":87.9149,"RA_OF_ASC_NODE":7.4517,"ARG_OF_PERICENTER":75.9276,"MEAN_ANOMALY":284.2089,"EPHEMERIS_TYPE":0,"CLASSIFICATION_TYPE":"U","NORAD_CAT_ID":55160,"ELEMENT_SET_NO":999,"REV_AT_EPOCH":16653,"BSTAR":-8.1173e-05,"MEAN_MOTION_DOT":-1.9e-07,"MEAN_MOTION_DDOT":0.0},{"OBJECT_NAME":"ONEWEB-0620","OBJECT_ID":"2023-004X","EPOCH":"2026-06-09T03:02:56.897088","MEAN_MOTION":13.11420187,"ECCENTRICITY":0.0001804,"INCLINATION":87.8895,"RA_OF_ASC_NODE":22.682,"ARG_OF_PERICENTER":92.8206,"MEAN_ANOMALY":267.3129,"EPHEMERIS_TYPE":0,"CLASSIFICATION_TYPE":"U","NORAD_CAT_ID":55161,"ELEMENT_SET_NO":999,"REV_AT_EPOCH":16477,"BSTAR":0.00019350000000000001,"MEAN_MOTION_DOT":8.1e-07,"MEAN_MOTION_DDOT":0.0},{"OBJECT_NAME":"ONEWEB-0621","OBJECT_ID":"2023-004Y","EPOCH":"2026-06-09T01:52:09.568128","MEAN_MOTION":13.11415839,"ECCENTRICITY":0.0002036,"INCLINATION":87.8902,"RA_OF_ASC_NODE":22.6795,"ARG_OF_PERICENTER":82.4999,"MEAN_ANOMALY":277.6361,"EPHEMERIS_TYPE":0,"CLASSIFICATION_TYPE":"U","NORAD_CAT_ID":55162,"ELEMENT_SET_NO":999,"REV_AT_EPOCH":16474,"BSTAR":0.0012181,"MEAN_MOTION_DOT":4.44e-06,"MEAN_MOTION_DDOT":0.0},{"OBJECT_NAME":"ONEWEB-0622","OBJECT_ID":"2023-004Z","EPOCH":"2026-06-09T01:59:29.181696","MEAN_MOTION":13.11415269,"ECCENTRICITY":0.0002471,"INCLINATION":87.8904,"RA_OF_ASC_NODE":22.6809,"ARG_OF_PERICENTER":93.9333,"MEAN_ANOMALY":266.2077,"EPHEMERIS_TYPE":0,"CLASSIFICATION_TYPE":"U","NORAD_CAT_ID":55163,"ELEMENT_SET_NO":999,"REV_AT_EPOCH":16473,"BSTAR":0.0007388200000000001,"MEAN_MOTION_DOT":2.75e-06,"MEAN_MOTION_DDOT":0.0},{"OBJECT_NAME":"ONEWEB-0623","OBJECT_ID":"2023-004AA","EPOCH":"2026-06-09T01:04:35.882400","MEAN_MOTION":13.17648976,"ECCENTRICITY":0.0002613,"INCLINATION":87.9137,"RA_OF_ASC_NODE":7.4988,"ARG_OF_PERICENTER":82.369,"MEAN_ANOMALY":277.7739,"EPHEMERIS_TYPE":0,"CLASSIFICATION_TYPE":"U","NORAD_CAT_ID":55164,"ELEMENT_SET_NO":999,"REV_AT_EPOCH":16651,"BSTAR":2.7646e-05,"MEAN_MOTION_DOT":2.4e-07,"MEAN_MOTION_DDOT":0.0},{"OBJECT_NAME":"ONEWEB-0624","OBJECT_ID":"2023-004AB","EPOCH":"2026-06-09T00:58:21.726336","MEAN_MOTION":13.12928576,"ECCENTRICITY":0.0001902,"INCLINATION":87.8945,"RA_OF_ASC_NODE":352.2074,"ARG_OF_PERICENTER":87.6379,"MEAN_ANOMALY":272.4968,"EPHEMERIS_TYPE":0,"CLASSIFICATION_TYPE":"U","NORAD_CAT_ID":55165,"ELEMENT_SET_NO":999,"REV_AT_EPOCH":16700,"BSTAR":-4.3894000000000004e-05,"MEAN_MOTION_DOT":-3e-08,"MEAN_MOTION_DDOT":0.0},{"OBJECT_NAME":"ONEWEB-0625","OBJECT_ID":"2023-004AC","EPOCH":"2026-06-09T02:39:22.452192","MEAN_MOTION":13.17648653,"ECCENTRICITY":0.0001736,"INCLINATION":87.9139,"RA_OF_ASC_NODE":7.4812,"ARG_OF_PERICENTER":82.5948,"MEAN_ANOMALY":277.5381,"EPHEMERIS_TYPE":0,"CLASSIFICATION_TYPE":"U","NORAD_CAT_ID":55166,"ELEMENT_SET_NO":999,"REV_AT_EPOCH":16651,"BSTAR":-2.9044e-05,"MEAN_MOTION_DOT":2e-08,"MEAN_MOTION_DDOT":0.0},{"OBJECT_NAME":"ONEWEB-0626","OBJECT_ID":"2023-004AD","EPOCH":"2026-06-09T02:24:48.002112","MEAN_MOTION":13.17649262,"ECCENTRICITY":0.0001683,"INCLINATION":87.9138,"RA_OF_ASC_NODE":7.4829,"ARG_OF_PERICENTER":99.8218,"MEAN_ANOMALY":260.3104,"EPHEMERIS_TYPE":0,"CLASSIFICATION_TYPE":"U","NORAD_CAT_ID":55167,"ELEMENT_SET_NO":999,"REV_AT_EPOCH":16651,"BSTAR":0.00023594000000000002,"MEAN_MOTION_DOT":1.04e-06,"MEAN_MOTION_DDOT":0.0},{"OBJECT_NAME":"ONEWEB-0627","OBJECT_ID":"2023-004AE","EPOCH":"2026-06-09T02:07:45.923808","MEAN_MOTION":13.1764744,"ECCENTRICITY":0.0002351,"INCLINATION":87.9137,"RA_OF_ASC_NODE":7.4858,"ARG_OF_PERICENTER":83.6652,"MEAN_ANOMALY":276.4748,"EPHEMERIS_TYPE":0,"CLASSIFICATION_TYPE":"U","NORAD_CAT_ID":55168,"ELEMENT_SET_NO":999,"REV_AT_EPOCH":16651,"BSTAR":-4.4251e-05,"MEAN_MOTION_DOT":-4e-08,"MEAN_MOTION_DDOT":0.0},{"OBJECT_NAME":"ONEWEB-0628","OBJECT_ID":"2023-004AF","EPOCH":"2026-06-09T05:56:36.953088","MEAN_MOTION":13.12443857,"ECCENTRICITY":0.0002473,"INCLINATION":87.8947,"RA_OF_ASC_NODE":352.2323,"ARG_OF_PERICENTER":82.0479,"MEAN_ANOMALY":278.093,"EPHEMERIS_TYPE":0,"CLASSIFICATION_TYPE":"U","NORAD_CAT_ID":55169,"ELEMENT_SET_NO":999,"REV_AT_EPOCH":16699,"BSTAR":-0.0010749,"MEAN_MOTION_DOT":-3.74e-06,"MEAN_MOTION_DDOT":0.0}]